[
    {
        "Altitude(m)": 558091.7222332535,
        "Argument of Periapsis(deg)": 0.019868973332140504,
        "Eccentricity": 0.0,
        "Inclination(deg)": 53.0,
        "Latitude(deg)": 45.20997221327998,
        "Longitude(deg)": 148.5995085390362,
        "Mean Anomaly(deg)": 117.54757860273276,
        "RAAN(deg)": 119.97043010558404,
        "Satellite Name": "Starlink Shell 1 533",
        "Satellite Number": 533,
        "Semi-Major Axis(m)": 6931778.249405717,
        "Time(s)": 570
    },
    {
        "Altitude(m)": 558017.1208774286,
        "Argument of Periapsis(deg)": 0.02021755181165174,
        "Eccentricity": 0.0,
        "Inclination(deg)": 53.0,
        "Latitude(deg)": 44.87861700103466,
        "Longitude(deg)": 149.31005290285734,
        "Mean Anomaly(deg)": 118.17440980628945,
        "RAAN(deg)": 119.96991133550655,
        "Satellite Name": "Starlink Shell 1 533",
        "Satellite Number": 533,
        "Semi-Major Axis(m)": 6931778.249405717,
        "Time(s)": 580
    },
    {
        "Altitude(m)": 557941.6040144995,
        "Argument of Periapsis(deg)": 0.020566130291162974,
        "Eccentricity": 0.0,
        "Inclination(deg)": 53.0,
        "Latitude(deg)": 44.542350486514906,
        "Longitude(deg)": 150.0119616129268,
        "Mean Anomaly(deg)": 118.80124100984621,
        "RAAN(deg)": 119.96939256542909,
        "Satellite Name": "Starlink Shell 1 533",
        "Satellite Number": 533,
        "Semi-Major Axis(m)": 6931778.249405717,
        "Time(s)": 590
    },
    {
        "Altitude(m)": 557865.2189816003,
        "Argument of Periapsis(deg)": 0.020914708770674213,
        "Eccentricity": 0.0,
        "Inclination(deg)": 53.0,
        "Latitude(deg)": 44.20128429436718,
        "Longitude(deg)": 150.70531111051272,
        "Mean Anomaly(deg)": 119.42807221340294,
        "RAAN(deg)": 119.96887379535164,
        "Satellite Name": "Starlink Shell 1 533",
        "Satellite Number": 533,
        "Semi-Major Axis(m)": 6931778.249405717,
        "Time(s)": 600
    },
    {
        "Altitude(m)": 557788.0137643128,
        "Argument of Periapsis(deg)": 0.021263287250185448,
        "Eccentricity": 0.0,
        "Inclination(deg)": 53.0,
        "Latitude(deg)": 43.855528395455586,
        "Longitude(deg)": 151.39018330696936,
        "Mean Anomaly(deg)": 120.05490341695963,
        "RAAN(deg)": 119.96835502527415,
        "Satellite Name": "Starlink Shell 1 533",
        "Satellite Number": 533,
        "Semi-Major Axis(m)": 6931778.249405717,
        "Time(s)": 610
    },
    {
        "Altitude(m)": 557710.0369726446,
        "Argument of Periapsis(deg)": 0.021611865729696686,
        "Eccentricity": 0.0,
        "Inclination(deg)": 53.0,
        "Latitude(deg)": 43.50519105848192,
        "Longitude(deg)": 152.0666656341003,
        "Mean Anomaly(deg)": 120.68173462051635,
        "RAAN(deg)": 119.96783625519667,
        "Satellite Name": "Starlink Shell 1 533",
        "Satellite Number": 533,
        "Semi-Major Axis(m)": 6931778.249405717,
        "Time(s)": 620
    },
    {
        "Altitude(m)": 557631.3378167013,
        "Argument of Periapsis(deg)": 0.02196044420920792,
        "Eccentricity": 0.0,
        "Inclination(deg)": 53.0,
        "Latitude(deg)": 43.15037880889946,
        "Longitude(deg)": 152.7348494312921,
        "Mean Anomaly(deg)": 121.30856582407303,
        "RAAN(deg)": 119.96731748511921,
        "Satellite Name": "Starlink Shell 1 533",
        "Satellite Number": 533,
        "Semi-Major Axis(m)": 6931778.249405717,
        "Time(s)": 630
    },
    {
        "Altitude(m)": 557551.9660820067,
        "Argument of Periapsis(deg)": 0.02230902268871916,
        "Eccentricity": 0.0,
        "Inclination(deg)": 53.0,
        "Latitude(deg)": 42.79119639468559,
        "Longitude(deg)": 153.3948308723147,
        "Mean Anomaly(deg)": 121.93539702762983,
        "RAAN(deg)": 119.96679871504172,
        "Satellite Name": "Starlink Shell 1 533",
        "Satellite Number": 533,
        "Semi-Major Axis(m)": 6931778.249405717,
        "Time(s)": 640
    },
    {
        "Altitude(m)": 557471.972104525,
        "Argument of Periapsis(deg)": 0.022657601168230398,
        "Eccentricity": 0.0,
        "Inclination(deg)": 53.0,
        "Latitude(deg)": 42.42774675855977,
        "Longitude(deg)": 154.04670938917272,
        "Mean Anomaly(deg)": 122.5622282311865,
        "RAAN(deg)": 119.96627994496426,
        "Satellite Name": "Starlink Shell 1 533",
        "Satellite Number": 533,
        "Semi-Major Axis(m)": 6931778.249405717,
        "Time(s)": 650
    },
    {
        "Altitude(m)": 557391.4067453608,
        "Argument of Periapsis(deg)": 0.023006179647741636,
        "Eccentricity": 0.0,
        "Inclination(deg)": 53.0,
        "Latitude(deg)": 42.06013101622178,
        "Longitude(deg)": 154.6905877955986,
        "Mean Anomaly(deg)": 123.18905943474321,
        "RAAN(deg)": 119.96576117488678,
        "Satellite Name": "Starlink Shell 1 533",
        "Satellite Number": 533,
        "Semi-Major Axis(m)": 6931778.249405717,
        "Time(s)": 660
    },
    {
        "Altitude(m)": 557310.3213651791,
        "Argument of Periapsis(deg)": 0.023354758127252868,
        "Eccentricity": 0.0,
        "Inclination(deg)": 53.0,
        "Latitude(deg)": 41.688448440207075,
        "Longitude(deg)": 155.32657242924176,
        "Mean Anomaly(deg)": 123.81589063829986,
        "RAAN(deg)": 119.9652424048093,
        "Satellite Name": "Starlink Shell 1 533",
        "Satellite Number": 533,
        "Semi-Major Axis(m)": 6931778.249405717,
        "Time(s)": 670
    },
    {
        "Altitude(m)": 557228.7677983278,
        "Argument of Periapsis(deg)": 0.023703336606764106,
        "Eccentricity": 0.0,
        "Inclination(deg)": 53.0,
        "Latitude(deg)": 41.3127964489623,
        "Longitude(deg)": 155.95477179959573,
        "Mean Anomaly(deg)": 124.44272184185662,
        "RAAN(deg)": 119.96472363473184,
        "Satellite Name": "Starlink Shell 1 533",
        "Satellite Number": 533,
        "Semi-Major Axis(m)": 6931778.249405717,
        "Time(s)": 680
    },
    {
        "Altitude(m)": 557146.7983267084,
        "Argument of Periapsis(deg)": 0.024051915086275345,
        "Eccentricity": 0.0,
        "Inclination(deg)": 53.0,
        "Latitude(deg)": 40.933270600753445,
        "Longitude(deg)": 156.57529676722157,
        "Mean Anomaly(deg)": 125.06955304541341,
        "RAAN(deg)": 119.96420486465438,
        "Satellite Name": "Starlink Shell 1 533",
        "Satellite Number": 533,
        "Semi-Major Axis(m)": 6931778.249405717,
        "Time(s)": 690
    },
    {
        "Altitude(m)": 557064.4656533563,
        "Argument of Periapsis(deg)": 0.024400493565786583,
        "Eccentricity": 0.0,
        "Inclination(deg)": 53.0,
        "Latitude(deg)": 40.549964592034925,
        "Longitude(deg)": 157.18826074112312,
        "Mean Anomaly(deg)": 125.69638424897005,
        "RAAN(deg)": 119.96368609457689,
        "Satellite Name": "Starlink Shell 1 533",
        "Satellite Number": 533,
        "Semi-Major Axis(m)": 6931778.249405717,
        "Time(s)": 700
    },
    {
        "Altitude(m)": 556981.8228758145,
        "Argument of Periapsis(deg)": 0.024749072045297815,
        "Eccentricity": 0.0,
        "Inclination(deg)": 53.0,
        "Latitude(deg)": 40.16297025992622,
        "Longitude(deg)": 157.79377838104546,
        "Mean Anomaly(deg)": 126.32321545252677,
        "RAAN(deg)": 119.96316732449942,
        "Satellite Name": "Starlink Shell 1 533",
        "Satellite Number": 533,
        "Semi-Major Axis(m)": 6931778.249405717,
        "Time(s)": 710
    },
    {
        "Altitude(m)": 556898.9234592372,
        "Argument of Periapsis(deg)": 0.025097650524809053,
        "Eccentricity": 0.0,
        "Inclination(deg)": 53.0,
        "Latitude(deg)": 39.77237758844902,
        "Longitude(deg)": 158.39196583003334,
        "Mean Anomaly(deg)": 126.95004665608344,
        "RAAN(deg)": 119.96264855442195,
        "Satellite Name": "Starlink Shell 1 533",
        "Satellite Number": 533,
        "Semi-Major Axis(m)": 6931778.249405717,
        "Time(s)": 720
    },
    {
        "Altitude(m)": 556815.8212092972,
        "Argument of Periapsis(deg)": 0.02544622900432029,
        "Eccentricity": 0.0,
        "Inclination(deg)": 53.0,
        "Latitude(deg)": 39.3782747181995,
        "Longitude(deg)": 158.9829409639079,
        "Mean Anomaly(deg)": 127.57687785964025,
        "RAAN(deg)": 119.96212978434447,
        "Satellite Name": "Starlink Shell 1 533",
        "Satellite Number": 533,
        "Semi-Major Axis(m)": 6931778.249405717,
        "Time(s)": 730
    },
    {
        "Altitude(m)": 556732.5702448646,
        "Argument of Periapsis(deg)": 0.02579480748383153,
        "Eccentricity": 0.0,
        "Inclination(deg)": 53.0,
        "Latitude(deg)": 38.980747959148644,
        "Longitude(deg)": 159.56682214427587,
        "Mean Anomaly(deg)": 128.20370906319695,
        "RAAN(deg)": 119.961611014267,
        "Satellite Name": "Starlink Shell 1 533",
        "Satellite Number": 533,
        "Semi-Major Axis(m)": 6931778.249405717,
        "Time(s)": 740
    },
    {
        "Altitude(m)": 556649.22497051,
        "Argument of Periapsis(deg)": 0.026143385963342765,
        "Eccentricity": 0.0,
        "Inclination(deg)": 53.0,
        "Latitude(deg)": 38.57988180627058,
        "Longitude(deg)": 160.14372850027442,
        "Mean Anomaly(deg)": 128.83054026675362,
        "RAAN(deg)": 119.96109224418954,
        "Satellite Name": "Starlink Shell 1 533",
        "Satellite Number": 533,
        "Semi-Major Axis(m)": 6931778.249405717,
        "Time(s)": 750
    }
]